AQUA                    
1 27424U 02022A   26071.96594348  .00001249  00000+0  25893-3 0  9994
2 27424  98.4179  39.3906 0000582  93.4732 307.8118 14.61986054269214
CZ-4B R/B               
1 27432U 02024C   26071.76983673  .00000049  00000+0  48379-4 0  9998
2 27432  98.8832 125.1608 0050341  15.5117  93.0238 14.14548225229671
MIDORI II (ADEOS-II)    
1 27597U 02056A   26071.81390758  .00000399  00000+0  17468-3 0  9999
2 27597  98.7771  30.3130 0001473  39.0122 321.1166 14.29288057210743
H-2A R/B                
1 27601U 02056E   26071.84165253  .00000328  00000+0  12924-3 0  9992
2 27601  98.3206  32.0873 0070695 151.3349 238.3866 14.33763149214567
CZ-4B R/B               
1 28059U 03049C   26071.54683965  .00000487  00000+0  12323-3 0  9994
2 28059  98.6880  66.5637 0047354 221.9948 137.7613 14.55023378187019
CZ-2C R/B               
1 28222U 04012C   26071.74279325  .00057480  00000+0  58434-3 0  9998
2 28222  97.7224 137.3253 0012996 297.1576  62.8357 15.64897873204754
SL-16 R/B               
1 28353U 04021B   26071.70978777 -.00000272  00000+0 -11680-3 0  9997
2 28353  70.9996 226.1541 0004254   4.8299 355.2863 14.14596735123262
CZ-4B R/B               
1 28415U 04035C   26071.65771191  .00008737  00000+0  30743-3 0  9999
2 28415  97.3503 105.8650 0030713 320.6231  39.2777 15.29120497180368
CZ-2C R/B               
1 28480U 04046B   26071.78115616  .00000139  00000+0  66408-4 0  9997
2 28480  98.1981 346.5727 0140048 145.3368 215.7041 14.26993277108943
ARIANE 5 R/B            
1 28499U 04049H   26071.93369660  .00000930  00000+0  10891-3 0  9990
2 28499  98.2632 240.5121 0083707 341.3820  18.4336 14.85272856146278
CZ-2D R/B               
1 28738U 05024B   26071.59537206  .00044496  00000+0  54090-3 0  9999
2 28738  97.3599  86.8489 0005369  39.5162 320.6486 15.60430671140236
ALOS (DAICHI)           
1 28931U 06002A   26071.83868591  .00001781  00000+0  30646-3 0  9993
2 28931  98.1221  27.7783 0000819  61.2913 298.8374 14.69822493 73944
